{
  "type": "FeatureCollection",
  "features": [
    {
      "type": "Feature",
      "properties": {
        "norad_id": 33376,
        "name": "GALAXY 19 (G-19)",
        "group": "intelsat",
        "lat": 0.024570243503767953,
        "lon": -24.15429840163829,
        "alt_km": 35780.429384175965,
        "timestamp": "2025-12-22T22:44:20.618541+00:00",
        "meta_object_name": "GALAXY 19 (G-19)",
        "meta_object_id": "2008-045A",
        "meta_epoch": "2025-12-22T10:59:28.112928",
        "meta_mean_motion": 1.0027123,
        "meta_eccentricity": 0.00025897,
        "meta_inclination": 0.0477,
        "meta_ra_of_asc_node": 266.0918,
        "meta_arg_of_pericenter": 11.8302,
        "meta_mean_anomaly": 241.2052,
        "meta_ephemeris_type": 0,
        "meta_classification_type": "U",
        "meta_norad_cat_id": 33376,
        "meta_element_set_no": 999,
        "meta_rev_at_epoch": 6313,
        "meta_bstar": 0,
        "meta_mean_motion_dot": -1.17e-06,
        "meta_mean_motion_ddot": 0,
        "tle_line1": "1 33376U 08045A   25356.45796427 -.00000117  00000+0  00000+0 0  9992",
        "tle_line2": "2 33376   0.0477 266.0918 0002589  11.8302 241.2052  1.00271230 63138"
      },
      "geometry": {
        "type": "Point",
        "coordinates": [
          -24.15429840163829,
          0.024570243503767953
        ]
      }
    },
    {
      "type": "Feature",
      "properties": {
        "norad_id": 35493,
        "name": "FM-5",
        "group": "intelsat",
        "lat": 0.010169706175986809,
        "lon": -13.311466827685337,
        "alt_km": 35790.754875270955,
        "timestamp": "2025-12-22T22:44:20.618553+00:00",
        "meta_object_name": "FM-5",
        "meta_object_id": "2009-034A",
        "meta_epoch": "2025-12-22T10:07:05.157408",
        "meta_mean_motion": 1.00271549,
        "meta_eccentricity": 0.00010976,
        "meta_inclination": 0.0241,
        "meta_ra_of_asc_node": 288.3712,
        "meta_arg_of_pericenter": 231.211,
        "meta_mean_anomaly": 357.2827,
        "meta_ephemeris_type": 0,
        "meta_classification_type": "U",
        "meta_norad_cat_id": 35493,
        "meta_element_set_no": 999,
        "meta_rev_at_epoch": 4487,
        "meta_bstar": 0,
        "meta_mean_motion_dot": -1.79e-06,
        "meta_mean_motion_ddot": 0,
        "tle_line1": "1 35493U 09034A   25356.42158747 -.00000179  00000+0  00000+0 0  9995",
        "tle_line2": "2 35493   0.0241 288.3712 0001097 231.2110 357.2827  1.00271549 44877"
      },
      "geometry": {
        "type": "Point",
        "coordinates": [
          -13.311466827685337,
          0.010169706175986809
        ]
      }
    },
    {
      "type": "Feature",
      "properties": {
        "norad_id": 36097,
        "name": "INTELSAT 14 (IS-14)",
        "group": "intelsat",
        "lat": 0.012555435353410012,
        "lon": 27.85035311725957,
        "alt_km": 35789.30079188291,
        "timestamp": "2025-12-22T22:44:20.618565+00:00",
        "meta_object_name": "INTELSAT 14 (IS-14)",
        "meta_object_id": "2009-064A",
        "meta_epoch": "2025-12-22T11:14:19.190688",
        "meta_mean_motion": 1.00270016,
        "meta_eccentricity": 0.00025243,
        "meta_inclination": 0.006,
        "meta_ra_of_asc_node": 1.7208,
        "meta_arg_of_pericenter": 281.7349,
        "meta_mean_anomaly": 291.3984,
        "meta_ephemeris_type": 0,
        "meta_classification_type": "U",
        "meta_norad_cat_id": 36097,
        "meta_element_set_no": 999,
        "meta_rev_at_epoch": 5883,
        "meta_bstar": 0,
        "meta_mean_motion_dot": -2.52e-06,
        "meta_mean_motion_ddot": 0,
        "tle_line1": "1 36097U 09064A   25356.46827767 -.00000252  00000+0  00000+0 0  9990",
        "tle_line2": "2 36097   0.0060   1.7208 0002524 281.7349 291.3984  1.00270016 58835"
      },
      "geometry": {
        "type": "Point",
        "coordinates": [
          27.85035311725957,
          0.012555435353410012
        ]
      }
    },
    {
      "type": "Feature",
      "properties": {
        "norad_id": 36106,
        "name": "INTELSAT 15 (IS-15)",
        "group": "intelsat",
        "lat": 0.019122802086937916,
        "lon": 157.96462879374891,
        "alt_km": 35791.57518267838,
        "timestamp": "2025-12-22T22:44:20.618576+00:00",
        "meta_object_name": "INTELSAT 15 (IS-15)",
        "meta_object_id": "2009-067A",
        "meta_epoch": "2025-12-22T11:51:31.929120",
        "meta_mean_motion": 1.00271405,
        "meta_eccentricity": 0.00021977,
        "meta_inclination": 0.0184,
        "meta_ra_of_asc_node": 2.3066,
        "meta_arg_of_pericenter": 280.931,
        "meta_mean_anomaly": 71.1056,
        "meta_ephemeris_type": 0,
        "meta_classification_type": "U",
        "meta_norad_cat_id": 36106,
        "meta_element_set_no": 999,
        "meta_rev_at_epoch": 3945,
        "meta_bstar": 0,
        "meta_mean_motion_dot": -1.64e-06,
        "meta_mean_motion_ddot": 0,
        "tle_line1": "1 36106U 09067A   25356.49411955 -.00000164  00000+0  00000+0 0  9997",
        "tle_line2": "2 36106   0.0184   2.3066 0002197 280.9310  71.1056  1.00271405 39451"
      },
      "geometry": {
        "type": "Point",
        "coordinates": [
          157.96462879374891,
          0.019122802086937916
        ]
      }
    },
    {
      "type": "Feature",
      "properties": {
        "norad_id": 36131,
        "name": "DIRECTV 12",
        "group": "intelsat",
        "lat": -0.013339172680088138,
        "lon": -29.878667533617588,
        "alt_km": 35783.003838467834,
        "timestamp": "2025-12-22T22:44:20.618588+00:00",
        "meta_object_name": "DIRECTV 12",
        "meta_object_id": "2009-075A",
        "meta_epoch": "2025-12-22T10:57:50.767776",
        "meta_mean_motion": 1.00275076,
        "meta_eccentricity": 5.277e-05,
        "meta_inclination": 0.0127,
        "meta_ra_of_asc_node": 95.6237,
        "meta_arg_of_pericenter": 221.682,
        "meta_mean_anomaly": 195.7074,
        "meta_ephemeris_type": 0,
        "meta_classification_type": "U",
        "meta_norad_cat_id": 36131,
        "meta_element_set_no": 999,
        "meta_rev_at_epoch": 4478,
        "meta_bstar": 0,
        "meta_mean_motion_dot": -8.2e-07,
        "meta_mean_motion_ddot": 0,
        "tle_line1": "1 36131U 09075A   25356.45683759 -.00000082  00000+0  00000+0 0  9992",
        "tle_line2": "2 36131   0.0127  95.6237 0000527 221.6820 195.7074  1.00275076 44787"
      },
      "geometry": {
        "type": "Point",
        "coordinates": [
          -29.878667533617588,
          -0.013339172680088138
        ]
      }
    },
    {
      "type": "Feature",
      "properties": {
        "norad_id": 36397,
        "name": "INTELSAT 16 (IS-16)",
        "group": "intelsat",
        "lat": 0.008722860355849509,
        "lon": -3.3500982782139386,
        "alt_km": 35785.76381967784,
        "timestamp": "2025-12-22T22:44:20.618600+00:00",
        "meta_object_name": "INTELSAT 16 (IS-16)",
        "meta_object_id": "2010-006A",
        "meta_epoch": "2025-12-22T09:22:57.109728",
        "meta_mean_motion": 1.00270699,
        "meta_eccentricity": 0.00018421,
        "meta_inclination": 0.0149,
        "meta_ra_of_asc_node": 318.3593,
        "meta_arg_of_pericenter": 313.1996,
        "meta_mean_anomaly": 244.1827,
        "meta_ephemeris_type": 0,
        "meta_classification_type": "U",
        "meta_norad_cat_id": 36397,
        "meta_element_set_no": 999,
        "meta_rev_at_epoch": 5788,
        "meta_bstar": 0,
        "meta_mean_motion_dot": -2.23e-06,
        "meta_mean_motion_ddot": 0,
        "tle_line1": "1 36397U 10006A   25356.39093877 -.00000223  00000+0  00000+0 0  9998",
        "tle_line2": "2 36397   0.0149 318.3593 0001842 313.1996 244.1827  1.00270699 57883"
      },
      "geometry": {
        "type": "Point",
        "coordinates": [
          -3.3500982782139386,
          0.008722860355849509
        ]
      }
    },
    {
      "type": "Feature",
      "properties": {
        "norad_id": 37185,
        "name": "XM-5",
        "group": "intelsat",
        "lat": 0.02686334287600869,
        "lon": -42.357526876026476,
        "alt_km": 35794.989320612534,
        "timestamp": "2025-12-22T22:44:20.618612+00:00",
        "meta_object_name": "XM-5",
        "meta_object_id": "2010-053A",
        "meta_epoch": "2025-12-22T10:47:31.225344",
        "meta_mean_motion": 1.00272,
        "meta_eccentricity": 0.00021803,
        "meta_inclination": 0.0677,
        "meta_ra_of_asc_node": 270.2646,
        "meta_arg_of_pericenter": 239.2198,
        "meta_mean_anomaly": 348.4632,
        "meta_ephemeris_type": 0,
        "meta_classification_type": "U",
        "meta_norad_cat_id": 37185,
        "meta_element_set_no": 999,
        "meta_rev_at_epoch": 5571,
        "meta_bstar": 0,
        "meta_mean_motion_dot": -1e-08,
        "meta_mean_motion_ddot": 0,
        "tle_line1": "1 37185U 10053A   25356.44966696 -.00000001  00000+0  00000+0 0  9994",
        "tle_line2": "2 37185   0.0677 270.2646 0002180 239.2198 348.4632  1.00272000 55718"
      },
      "geometry": {
        "type": "Point",
        "coordinates": [
          -42.357526876026476,
          0.02686334287600869
        ]
      }
    }
  ]
}